{"type": "FeatureCollection", "features": [ {"type": "Feature", "properties": {"norad_id": 42741, "name": "EUTELSAT 172B", "group": "eutelsat", "lat": -0.005306729571770076, "lon": 91.71938952945659, "alt_km": 35787.42103234731, "timestamp": "2025-12-02T13:52:16.946920+00:00", "meta": {"OBJECT_NAME": "EUTELSAT 172B", "OBJECT_ID": "2017-029B", "EPOCH": "2025-12-02T06:02:32.024256", "MEAN_MOTION": 1.00270594, "ECCENTRICITY": 2.558e-05, "INCLINATION": 0.0107, "RA_OF_ASC_NODE": 103.0571, "ARG_OF_PERICENTER": 148.879, "MEAN_ANOMALY": 82.055, "EPHEMERIS_TYPE": 0, "CLASSIFICATION_TYPE": "U", "NORAD_CAT_ID": 42741, "ELEMENT_SET_NO": 999, "REV_AT_EPOCH": 3175, "BSTAR": 0, "MEAN_MOTION_DOT": 1.5e-07, "MEAN_MOTION_DDOT": 0}, "tle": {"line1": "1 42741U 17029B   25336.25175954  .00000015  00000+0  00000+0 0  9998", "line2": "2 42741   0.0107 103.0571 0000255 148.8790  82.0550  1.00270594 31758"}}, "geometry": {"type": "Point", "coordinates": [91.71938952945659, -0.005306729571770076]}}, {"type": "Feature", "properties": {"norad_id": 44334, "name": "EUTELSAT 7C", "group": "eutelsat", "lat": 0.06029992993374676, "lon": -73.25658413003511, "alt_km": 35778.185336909984, "timestamp": "2025-12-02T13:52:16.946932+00:00", "meta": {"OBJECT_NAME": "EUTELSAT 7C", "OBJECT_ID": "2019-034B", "EPOCH": "2025-12-02T03:32:42.105120", "MEAN_MOTION": 1.00269329, "ECCENTRICITY": 0.0003345, "INCLINATION": 0.0767, "RA_OF_ASC_NODE": 181.5669, "ARG_OF_PERICENTER": 52.1186, "MEAN_ANOMALY": 257.7397, "EPHEMERIS_TYPE": 0, "CLASSIFICATION_TYPE": "U", "NORAD_CAT_ID": 44334, "ELEMENT_SET_NO": 999, "REV_AT_EPOCH": 486, "BSTAR": 0, "MEAN_MOTION_DOT": 6.9e-07, "MEAN_MOTION_DDOT": 0}, "tle": {"line1": "1 44334U 19034B   25336.14770955  .00000069  00000+0  00000+0 0  9995", "line2": "2 44334   0.0767 181.5669 0003345  52.1186 257.7397  1.00269329  4864"}}, "geometry": {"type": "Point", "coordinates": [-73.25658413003511, 0.06029992993374676]}}, {"type": "Feature", "properties": {"norad_id": 44624, "name": "EUTELSAT 5 WEST B", "group": "eutelsat", "lat": -0.07173398596419985, "lon": -85.24973579525185, "alt_km": 35771.61062006531, "timestamp": "2025-12-02T13:52:16.946943+00:00", "meta": {"OBJECT_NAME": "EUTELSAT 5 WEST B", "OBJECT_ID": "2019-067A", "EPOCH": "2025-12-02T05:11:59.365248", "MEAN_MOTION": 1.00272647, "ECCENTRICITY": 0.00036375, "INCLINATION": 0.0731, "RA_OF_ASC_NODE": 325.8085, "ARG_OF_PERICENTER": 286.433, "MEAN_ANOMALY": 252.0904, "EPHEMERIS_TYPE": 0, "CLASSIFICATION_TYPE": "U", "NORAD_CAT_ID": 44624, "ELEMENT_SET_NO": 999, "REV_AT_EPOCH": 2246, "BSTAR": 0, "MEAN_MOTION_DOT": -2.1e-07, "MEAN_MOTION_DDOT": 0}, "tle": {"line1": "1 44624U 19067A   25336.21665932 -.00000021  00000+0  00000+0 0  9998", "line2": "2 44624   0.0731 325.8085 0003637 286.4330 252.0904  1.00272647 22464"}}, "geometry": {"type": "Point", "coordinates": [-85.24973579525185, -0.07173398596419985]}}, {"type": "Feature", "properties": {"norad_id": 45027, "name": "EUTELSAT KONNECT", "group": "eutelsat", "lat": -0.026651735380685704, "lon": -73.09758779581068, "alt_km": 35779.95838455276, "timestamp": "2025-12-02T13:52:16.946954+00:00", "meta": {"OBJECT_NAME": "EUTELSAT KONNECT", "OBJECT_ID": "2020-005B", "EPOCH": "2025-12-02T00:48:38.717280", "MEAN_MOTION": 1.00267792, "ECCENTRICITY": 0.00017096, "INCLINATION": 0.0682, "RA_OF_ASC_NODE": 99.0592, "ARG_OF_PERICENTER": 188.9784, "MEAN_ANOMALY": 162.455, "EPHEMERIS_TYPE": 0, "CLASSIFICATION_TYPE": "U", "NORAD_CAT_ID": 45027, "ELEMENT_SET_NO": 999, "REV_AT_EPOCH": 2235, "BSTAR": 0, "MEAN_MOTION_DOT": 7e-07, "MEAN_MOTION_DDOT": 0}, "tle": {"line1": "1 45027U 20005B   25336.03378145  .00000070  00000+0  00000+0 0  9990", "line2": "2 45027   0.0682  99.0592 0001709 188.9784 162.4550  1.00267792 22351"}}, "geometry": {"type": "Point", "coordinates": [-73.09758779581068, -0.026651735380685704]}}, {"type": "Feature", "properties": {"norad_id": 49056, "name": "EUTELSAT QUANTUM", "group": "eutelsat", "lat": -0.006506183691947327, "lon": -32.53054733696148, "alt_km": 35778.9659395664, "timestamp": "2025-12-02T13:52:16.946966+00:00", "meta": {"OBJECT_NAME": "EUTELSAT QUANTUM", "OBJECT_ID": "2021-069B", "EPOCH": "2025-12-02T03:44:18.492576", "MEAN_MOTION": 1.00271228, "ECCENTRICITY": 0.00036855, "INCLINATION": 0.0151, "RA_OF_ASC_NODE": 1.9478, "ARG_OF_PERICENTER": 263.2618, "MEAN_ANOMALY": 269.8413, "EPHEMERIS_TYPE": 0, "CLASSIFICATION_TYPE": "U", "NORAD_CAT_ID": 49056, "ELEMENT_SET_NO": 999, "REV_AT_EPOCH": 1595, "BSTAR": 0, "MEAN_MOTION_DOT": 1.47e-06, "MEAN_MOTION_DDOT": 0}, "tle": {"line1": "1 49056U 21069B   25336.15576959  .00000147  00000+0  00000+0 0  9998", "line2": "2 49056   0.0151   1.9478 0003685 263.2618 269.8413  1.00271228 15958"}}, "geometry": {"type": "Point", "coordinates": [-32.53054733696148, -0.006506183691947327]}}, {"type": "Feature", "properties": {"norad_id": 53765, "name": "EUTELSAT KONNECT VHTS", "group": "eutelsat", "lat": -0.018226129615489597, "lon": -77.55602665993305, "alt_km": 35780.1071126949, "timestamp": "2025-12-02T13:52:16.946977+00:00", "meta": {"OBJECT_NAME": "EUTELSAT KONNECT VHTS", "OBJECT_ID": "2022-110A", "EPOCH": "2025-12-02T05:14:14.150112", "MEAN_MOTION": 1.00268587, "ECCENTRICITY": 0.00027236, "INCLINATION": 0.0571, "RA_OF_ASC_NODE": 108.6218, "ARG_OF_PERICENTER": 120.1049, "MEAN_ANOMALY": 283.8579, "EPHEMERIS_TYPE": 0, "CLASSIFICATION_TYPE": "U", "NORAD_CAT_ID": 53765, "ELEMENT_SET_NO": 999, "REV_AT_EPOCH": 485, "BSTAR": 0, "MEAN_MOTION_DOT": 3.8e-07, "MEAN_MOTION_DDOT": 0}, "tle": {"line1": "1 53765U 22110A   25336.21821933  .00000038  00000+0  00000+0 0  9999", "line2": "2 53765   0.0571 108.6218 0002723 120.1049 283.8579  1.00268587  4854"}}, "geometry": {"type": "Point", "coordinates": [-77.55602665993305, -0.018226129615489597]}}, {"type": "Feature", "properties": {"norad_id": 54048, "name": "EUTELSAT HOTBIRD 13F", "group": "eutelsat", "lat": -0.0025122208078858055, "lon": -67.29759805004588, "alt_km": 35782.66501328249, "timestamp": "2025-12-02T13:52:16.946989+00:00", "meta": {"OBJECT_NAME": "EUTELSAT HOTBIRD 13F", "OBJECT_ID": "2022-134A", "EPOCH": "2025-12-01T22:26:58.691328", "MEAN_MOTION": 1.00270089, "ECCENTRICITY": 0.00020693, "INCLINATION": 0.0548, "RA_OF_ASC_NODE": 289.3102, "ARG_OF_PERICENTER": 67.0046, "MEAN_ANOMALY": 64.4812, "EPHEMERIS_TYPE": 0, "CLASSIFICATION_TYPE": "U", "NORAD_CAT_ID": 54048, "ELEMENT_SET_NO": 999, "REV_AT_EPOCH": 1139, "BSTAR": 0, "MEAN_MOTION_DOT": 1.08e-06, "MEAN_MOTION_DDOT": 0}, "tle": {"line1": "1 54048U 22134A   25335.93540152  .00000108  00000+0  00000+0 0  9997", "line2": "2 54048   0.0548 289.3102 0002069  67.0046  64.4812  1.00270089 11391"}}, "geometry": {"type": "Point", "coordinates": [-67.29759805004588, -0.0025122208078858055]}}, {"type": "Feature", "properties": {"norad_id": 54225, "name": "EUTELSAT HOTBIRD 13G", "group": "eutelsat", "lat": 0.028870872813876552, "lon": -67.25339596426542, "alt_km": 35788.332969891584, "timestamp": "2025-12-02T13:52:16.947000+00:00", "meta": {"OBJECT_NAME": "EUTELSAT HOTBIRD 13G", "OBJECT_ID": "2022-146A", "EPOCH": "2025-12-02T00:40:38.514720", "MEAN_MOTION": 1.0027224, "ECCENTRICITY": 0.00020869, "INCLINATION": 0.0472, "RA_OF_ASC_NODE": 239.1671, "ARG_OF_PERICENTER": 307.1755, "MEAN_ANOMALY": 267.9561, "EPHEMERIS_TYPE": 0, "CLASSIFICATION_TYPE": "U", "NORAD_CAT_ID": 54225, "ELEMENT_SET_NO": 999, "REV_AT_EPOCH": 548, "BSTAR": 0, "MEAN_MOTION_DOT": 1.09e-06, "MEAN_MOTION_DDOT": 0}, "tle": {"line1": "1 54225U 22146A   25336.02822355  .00000109  00000+0  00000+0 0  9997", "line2": "2 54225   0.0472 239.1671 0002086 307.1755 267.9561  1.00272240  5487"}}, "geometry": {"type": "Point", "coordinates": [-67.25339596426542, 0.028870872813876552]}}, {"type": "Feature", "properties": {"norad_id": 54259, "name": "EUTELSAT 10B", "group": "eutelsat", "lat": -0.024486952654696754, "lon": -70.24369336421924, "alt_km": 35788.94838450144, "timestamp": "2025-12-02T13:52:16.947011+00:00", "meta": {"OBJECT_NAME": "EUTELSAT 10B", "OBJECT_ID": "2022-157A", "EPOCH": "2025-12-02T05:16:13.959264", "MEAN_MOTION": 1.00268416, "ECCENTRICITY": 0.00010845, "INCLINATION": 0.0577, "RA_OF_ASC_NODE": 104.8951, "ARG_OF_PERICENTER": 69.3225, "MEAN_ANOMALY": 346.1941, "EPHEMERIS_TYPE": 0, "CLASSIFICATION_TYPE": "U", "NORAD_CAT_ID": 54259, "ELEMENT_SET_NO": 999, "REV_AT_EPOCH": 1105, "BSTAR": 0, "MEAN_MOTION_DOT": 8.9e-07, "MEAN_MOTION_DDOT": 0}, "tle": {"line1": "1 54259U 22157A   25336.21960601  .00000089  00000+0  00000+0 0  9991", "line2": "2 54259   0.0577 104.8951 0001084  69.3225 346.1941  1.00268416 11057"}}, "geometry": {"type": "Point", "coordinates": [-70.24369336421924, -0.024486952654696754]}}, {"type": "Feature", "properties": {"norad_id": 59346, "name": "EUTELSAT 36D", "group": "eutelsat", "lat": 0.006942596026431494, "lon": -44.39378009719135, "alt_km": 35784.80544848109, "timestamp": "2025-12-02T13:52:16.947023+00:00", "meta": {"OBJECT_NAME": "EUTELSAT 36D", "OBJECT_ID": "2024-059A", "EPOCH": "2025-12-02T06:56:38.710752", "MEAN_MOTION": 1.00269594, "ECCENTRICITY": 4.64e-05, "INCLINATION": 0.0132, "RA_OF_ASC_NODE": 300.2901, "ARG_OF_PERICENTER": 357.134, "MEAN_ANOMALY": 274.017, "EPHEMERIS_TYPE": 0, "CLASSIFICATION_TYPE": "U", "NORAD_CAT_ID": 59346, "ELEMENT_SET_NO": 999, "REV_AT_EPOCH": 617, "BSTAR": 0, "MEAN_MOTION_DOT": 1.77e-06, "MEAN_MOTION_DDOT": 0}, "tle": {"line1": "1 59346U 24059A   25336.28933693  .00000177  00000+0  00000+0 0  9992", "line2": "2 59346   0.0132 300.2901 0000464 357.1340 274.0170  1.00269594  6178"}}, "geometry": {"type": "Point", "coordinates": [-44.39378009719135, 0.006942596026431494]}}]}